ONEWEB-0331             
1 49198U 21083N   25153.15893251  .00000035  00000+0  57270-4 0  9997
2 49198  87.9149  50.9759 0002177  71.3531 288.7837 13.18687195181207
ONEWEB-0333             
1 49199U 21083P   25152.70925144 -.00000310  00000+0 -88390-3 0  9999
2 49199  87.8984  35.8800 0001779  81.9304 278.2027 13.13469230180965
ONEWEB-0334             
1 49200U 21083Q   25152.84343211  .00000002  00000+0 -27496-4 0  9994
2 49200  87.9257 350.2210 0001592 123.0227 237.1060 13.20770108186588
ONEWEB-0335             
1 49201U 21083R   25152.70416591 -.00000334  00000+0 -94834-3 0  9990
2 49201  87.8987  35.8695 0001895  74.7321 285.4017 13.13469400180971
ONEWEB-0336             
1 49202U 21083S   25153.43717383  .00000280  00000+0  73129-3 0  9997
2 49202  87.8984  35.7168 0001723  80.4833 279.6490 13.13471749182369
ONEWEB-0337             
1 49203U 21083T   25152.91395295  .00000000  00000+0 -34842-4 0  9995
2 49203  87.8985  35.8203 0002046  79.0367 281.0992 13.13471445182296
ONEWEB-0338             
1 49204U 21083U   25152.81819858  .00000040  00000+0  65336-4 0  9996
2 49204  87.9263 350.2151 0001752  99.6216 260.5116 13.20770786186604
ONEWEB-0339             
1 49205U 21083V   25153.91285368  .00000010  00000+0 -85536-5 0  9995
2 49205  87.8983  35.6092 0001929  84.0315 276.1033 13.13468805182408
